ENTRYSAT                
1 44429U 98067QP  19276.01681034  .00010515  00000-0  17311-3 0  9999
2 44429  51.6413 185.4366 0004071  90.1316 270.0141 15.52931960 14292
VCC C                   
1 44430U 98067QQ  19276.14661408  .00011981  00000-0  19569-3 0  9993
2 44430  51.6409 184.8042 0004265  98.2050 261.9424 15.52999948 13137
VCC B                   
1 44431U 98067QR  19276.02305145  .00009693  00000-0  16122-3 0  9993
2 44431  51.6411 185.4786 0004358  96.3257 263.8229 15.52747729 14238
